ONEWEB-0235             
1 48771U 21045E   25351.27522448  .00000011  00000+0 -56627-5 0  9992
2 48771  87.8999 295.4826 0002158  67.1173 293.0185 13.15549441220465
ONEWEB-0242             
1 48772U 21045F   25351.26888892 -.00000103  00000+0 -30672-3 0  9993
2 48772  87.9006 295.4776 0002011  76.9471 283.1883 13.15550475220506
ONEWEB-0241             
1 48773U 21045G   25351.33225864 -.00000141  00000+0 -40827-3 0  9991
2 48773  87.8998 295.5022 0001857  65.1385 294.9938 13.15546420220429
ONEWEB-0243             
1 48774U 21045H   25351.28790509  .00000090  00000+0  20533-3 0  9992
2 48774  87.8996 295.5206 0002213  73.2887 286.8486 13.15549578220443
ONEWEB-0222             
1 48775U 21045J   25351.27126569 -.00000050  00000+0 -16654-3 0  9998
2 48775  87.9004 295.4774 0001910  73.1281 287.0059 13.15548564220481
ONEWEB-0244             
1 48776U 21045K   25351.29740990  .00000215  00000+0  53604-3 0  9998
2 48776  87.9011 295.4600 0001943  74.9059 285.2286 13.15550408221052
ONEWEB-0247             
1 48777U 21045L   25351.29424673  .00000096  00000+0  22035-3 0  9997
2 48777  87.8989 295.5163 0002679  65.3052 294.8357 13.15549436220496
ONEWEB-0245             
1 48778U 21045M   25351.28949233  .00000123  00000+0  29324-3 0  9990
2 48778  87.8994 295.4817 0001740  70.3897 289.7422 13.15549182220460
